{
  "norad_id": 45428,
  "name": "ONEWEB-0061",
  "history": [
    {
      "epoch": "2026-03-28T21:42:20.322432Z",
      "apogee_km": 1219.1312072791425,
      "perigee_km": 1216.222466328477,
      "latitude_deg": -2.246372487866231e-05,
      "longitude_deg": -114.89303272110209,
      "height_km": 1220.322399586941,
      "semi_major_axis_km": 7595.813836803809,
      "eccentricity": 0.00019147,
      "inclination_deg": 87.8904,
      "raan_deg": 37.0098,
      "arg_perigee_deg": 80.4837,
      "mean_anomaly_deg": 279.6507,
      "mean_motion_rev_day": 13.11418463
    },
    {
      "epoch": "2026-03-29T03:11:56.400288Z",
      "apogee_km": 1219.1265351917564,
      "perigee_km": 1216.227972472494,
      "latitude_deg": -4.9858728446131055e-05,
      "longitude_deg": 162.43553783370604,
      "height_km": 1220.324832102118,
      "semi_major_axis_km": 7595.814253832125,
      "eccentricity": 0.0001908,
      "inclination_deg": 87.8905,
      "raan_deg": 36.9643,
      "arg_perigee_deg": 80.5301,
      "mean_anomaly_deg": 279.6042,
      "mean_motion_rev_day": 13.11418355
    },
    {
      "epoch": "2026-03-30T03:00:12.660192Z",
      "apogee_km": 1219.1246478744424,
      "perigee_km": 1216.2276047480664,
      "latitude_deg": 6.827875150234062e-05,
      "longitude_deg": 164.1929763878471,
      "height_km": 1220.3213688090125,
      "semi_major_axis_km": 7595.813126311254,
      "eccentricity": 0.0001907,
      "inclination_deg": 87.8906,
      "raan_deg": 36.7671,
      "arg_perigee_deg": 80.432,
      "mean_anomaly_deg": 279.7024,
      "mean_motion_rev_day": 13.11418647
    }
  ]
}